STARLINK-4428           
1 53672U 22105AA  26068.66350615 -.00001600  00000+0 -12006-3 0  9997
2 53672  97.6017 310.2043 0002584  56.7080 303.4392 15.01253245193233
HAWK-8B                 
1 59445U 24066D   26068.47430810  .00002353  00000+0  21133-3 0  9999
2 59445  45.6192  73.7012 0004280 258.0487 101.9914 14.98769819104860
